{"fetched_at":"2026-05-03T06:27:58Z","count":17151,"tles":[{"name":"KUIPER-00448","line1":"1 68871U 26095H   26122.41670139  .00070116  00000+0  18553-2 0  9994","line2":"2 68871  51.8819 103.6806 0003559 105.8196  49.1317 15.37738678  1416","category":"Other"}]}