{
  "norad_id": 68871,
  "name": "KUIPER-00448",
  "history": [
    {
      "epoch": "2026-05-02T10:00:03.000096Z",
      "apogee_km": 455.22907382913036,
      "perigee_km": 450.36681433593367,
      "latitude_deg": 19.47551609629588,
      "longitude_deg": -102.68429461682065,
      "height_km": 451.4988621708029,
      "semi_major_axis_km": 6830.934944082532,
      "eccentricity": 0.0003559,
      "inclination_deg": 51.8819,
      "raan_deg": 103.6806,
      "arg_perigee_deg": 105.8196,
      "mean_anomaly_deg": 49.1317,
      "mean_motion_rev_day": 15.37738678
    }
  ]
}